1 27424U 02022A   12077.49039999 -.00010638  00000-0 -23583-2 0  2451
2 27424 098.2268 019.3410 0001599 090.8535 269.3152 14.57043735525018